NORAD_CAT_ID,OBJECT_NAME,OBJECT_TYPE,EPOCH,MEAN_MOTION,ECCENTRICITY,INCLINATION,RA_OF_ASC_NODE,ARG_OF_PERICENTER,MEAN_ANOMALY,BSTAR,MEAN_MOTION_DOT,MEAN_MOTION_DDOT,TLE_LINE0,TLE_LINE1,TLE_LINE2,SEMIMAJOR_AXIS,PERIOD,APOGEE,PERIGEE,DECAYED
51878.0,STARLINK-3575,PAYLOAD,2022-04-06 22:00:00,15.73191163,0.0001124,53.2169,334.3554,103.4345,345.0656,7.9391e-05,0.00010532,0.0,0 STARLINK-3575,1 51878U 22022AC  22096.91667824  .00010532  00000-0  79391-4 0  9993,2 51878  53.2169 334.3554 0001124 103.4345 345.0656 15.73191163  3696,6727.92,91.534,350.542,349.029,0.0
51878.0,STARLINK-3575,PAYLOAD,2022-04-07 04:00:00,15.7320717,0.0001172,53.2163,333.1186,96.9508,328.2308,0.00022032,0.00030422,0.0,0 STARLINK-3575,1 51878U 22022AC  22097.16667824  .00030422  00000-0  22032-3 0  9990,2 51878  53.2163 333.1186 0001172  96.9508 328.2308 15.73207170  6650,6727.875,91.533,350.528,348.951,0.0
51878.0,STARLINK-3575,PAYLOAD,2022-04-07 14:00:01,15.7319929,0.0001264,53.2166,331.0543,115.1013,151.2742,0.0003842,0.00053643,0.0,0 STARLINK-3575,1 51878U 22022AC  22097.58334491  .00053643  00000-0  38420-3 0  9995,2 51878  53.2166 331.0543 0001264 115.1013 151.2742 15.73199290  3706,6727.897,91.533,350.61300000000006,348.912,0.0
51878.0,STARLINK-3575,PAYLOAD,2022-04-07 20:00:01,15.73230943,0.0001162,53.2169,329.8188,108.7813,134.2981,-0.00016846,-0.00024225,0.0,0 STARLINK-3575,1 51878U 22022AC  22097.83334491 -.00024225  00000-0 -16846-3 0  9997,2 51878  53.2169 329.8188 0001162 108.7813 134.2981 15.73230943  6768,6727.807,91.531,350.454,348.89,0.0
51878.0,STARLINK-3575,PAYLOAD,2022-04-07 22:00:00,15.73202119,0.0001125,53.2168,329.4068,106.2157,249.1112,0.00025466,0.00035273,0.0,0 STARLINK-3575,1 51878U 22022AC  22097.91667824  .00035273  00000-0  25466-3 0  9996,2 51878  53.2168 329.4068 0001125 106.2157 249.1112 15.73202119  3687,6727.889,91.533,350.511,348.997,0.0
51878.0,STARLINK-3575,PAYLOAD,2022-04-08 06:00:00,15.73286618,0.0001038,53.2167,327.7569,102.4149,341.849,-0.0003731,-0.00052846,0.0,0 STARLINK-3575,1 51878U 22022AC  22098.25001157 -.00052846  00000-0 -37310-3 0  9993,2 51878  53.2167 327.7569 0001038 102.4149 341.8490 15.73286618  6829,6727.648,91.528,350.212,348.815,0.0
51878.0,STARLINK-3575,PAYLOAD,2022-04-08 14:00:03,15.73239207,0.0001315,53.2168,326.1057,111.3629,62.0347,-0.00018455,-0.00026482,0.0,0 STARLINK-3575,1 51878U 22022AC  22098.58336806 -.00026482  00000-0 -18455-3 0  9997,2 51878  53.2168 326.1057 0001315 111.3629  62.0347 15.73239207  3704,6727.783,91.531,350.533,348.764,0.0
51878.0,STARLINK-3575,PAYLOAD,2022-04-08 22:00:00,15.73224613,0.0001288,53.217,324.4539,98.13,164.1217,-0.00058547,-0.00082075,0.0,0 STARLINK-3575,1 51878U 22022AC  22098.91667824 -.00082075  00000-0 -58547-3 0  9997,2 51878  53.2170 324.4539 0001288  98.1300 164.1217 15.73224613  3671,6727.825,91.532,350.557,348.8230000000001,0.0
51878.0,STARLINK-3575,PAYLOAD,2022-04-09 06:00:00,15.73173911,0.000119,53.2166,322.7981,104.2908,246.8827,-0.0028816,-0.00386558,0.0,0 STARLINK-3575,1 51878U 22022AC  22099.25001157 -.00386558  00000-0 -28816-2 0  9994,2 51878  53.2166 322.7981 0001190 104.2908 246.8827 15.73173911  6989,6727.97,91.535,350.635,349.034,0.0
51878.0,STARLINK-3575,PAYLOAD,2022-04-09 14:00:01,15.73062973,0.0001179,53.2173,321.1424,100.0527,339.8291,-0.0046815,-0.00608559,0.0,0 STARLINK-3575,1 51878U 22022AC  22099.58334491 -.00608559  00000-0 -46815-2 0  9997,2 51878  53.2173 321.1424 0001179 100.0527 339.8291 15.73062973  7030,6728.286,91.541,350.944,349.358,0.0
51878.0,STARLINK-3575,PAYLOAD,2022-04-09 22:00:00,15.72628104,0.0001198,53.2173,319.4956,90.7443,77.6454,-0.0057138,-0.00719369,0.0,0 STARLINK-3575,1 51878U 22022AC  22099.91667824 -.00719369  00000-0 -57138-2 0  9995,2 51878  53.2173 319.4956 0001198  90.7443  77.6454 15.72628104  7090,6729.526,91.566,352.19699999999995,350.585,0.0
51878.0,STARLINK-3575,PAYLOAD,2022-04-10 14:00:01,15.71606698,0.0001129,53.2177,316.2038,109.7415,233.8921,-0.0059403999999999,-0.00716224,0.0,0 STARLINK-3575,1 51878U 22022AC  22100.58334491 -.00716224  00000-0 -59404-2 0  9997,2 51878  53.2177 316.2038 0001129 109.7415 233.8921 15.71606698  3706,6732.441999999999,91.626,355.06699999999995,353.546,0.0
51878.0,STARLINK-3575,PAYLOAD,2022-04-10 20:00:01,15.7122509,0.0001091,53.2176,314.9732,96.7016,222.0148,-0.0060533,-0.00717952,0.0,0 STARLINK-3575,1 51878U 22022AC  22100.83334491 -.00717952  00000-0 -60533-2 0  9999,2 51878  53.2176 314.9732 0001091  96.7016 222.0148 15.71225090  7237,6733.531999999997,91.648,356.131,354.662,0.0
51878.0,STARLINK-3575,PAYLOAD,2022-04-10 22:00:00,15.71099503,0.0001072,53.2176,314.563,86.8658,343.4676,-0.0061137,-0.00720999,0.0,0 STARLINK-3575,1 51878U 22022AC  22100.91667824 -.00720999  00000-0 -61137-2 0  9993,2 51878  53.2176 314.5630 0001072  86.8658 343.4676 15.71099503  3701,6733.89,91.656,356.477,355.034,0.0
51878.0,STARLINK-3575,PAYLOAD,2022-04-11 14:00:01,15.70078021,0.0001262999999999,53.2175,311.2784,105.3694,136.5313,-0.0063441,-0.00717044,0.0,0 STARLINK-3575,1 51878U 22022AC  22101.58334491 -.00717044  00000-0 -63441-2 0  9995,2 51878  53.2175 311.2784 0001263 105.3694 136.5313 15.70078021  3703,6736.811,91.715,359.527,357.825,0.0
51878.0,STARLINK-3575,PAYLOAD,2022-04-11 20:00:01,15.69694135,0.000123,53.2173,310.0506,96.1252,119.4806,-0.00644,-0.00716334,0.0,0 STARLINK-3575,1 51878U 22022AC  22101.83334491 -.00716334  00000-0 -64400-2 0  9990,2 51878  53.2173 310.0506 0001230  96.1252 119.4806 15.69694135  7395,6737.909000000002,91.738,360.603,358.945,0.0
51878.0,STARLINK-3575,PAYLOAD,2022-04-11 22:00:00,15.69569253,0.0001093,53.2175,309.6414,100.2376,226.5254,-0.0065145,-0.00720458,0.0,0 STARLINK-3575,1 51878U 22022AC  22101.91667824 -.00720458  00000-0 -65145-2 0  9997,2 51878  53.2175 309.6414 0001093 100.2376 226.5254 15.69569253  3698,6738.267,91.745,360.86800000000005,359.395,0.0
51878.0,STARLINK-3575,PAYLOAD,2022-04-12 14:00:01,15.68547411,0.0001173,53.2178,306.3645,101.7382,32.9153,-0.0067511,-0.0071598999999999,0.0,0 STARLINK-3575,1 51878U 22022AC  22102.58334491 -.00715990  00000-0 -67511-2 0  9996,2 51878  53.2178 306.3645 0001173 101.7382  32.9153 15.68547411  3703,6741.193,91.805,363.848,362.267,0.0
51878.0,STARLINK-3575,PAYLOAD,2022-04-12 20:00:01,15.68166169,0.0001116,53.2176,305.1395,84.7709,22.2078,-0.006887,-0.00718739,0.0,0 STARLINK-3575,1 51878U 22022AC  22102.83334491 -.00718739  00000-0 -68870-2 0  9997,2 51878  53.2176 305.1395 0001116  84.7709  22.2078 15.68166169  7541,6742.285,91.827,364.903,363.398,0.0
51878.0,STARLINK-3575,PAYLOAD,2022-04-12 22:00:00,15.68037825,0.0001248,53.2177,304.7309,88.6193,129.0583,-0.0069048,-0.00716979,0.0,0 STARLINK-3575,1 51878U 22022AC  22102.91667824 -.00716979  00000-0 -69048-2 0  9997,2 51878  53.2177 304.7309 0001248  88.6193 129.0583 15.68037825  3693,6742.653,91.835,365.36,363.677,0.0
51878.0,STARLINK-3575,PAYLOAD,2022-04-13 14:00:03,15.67017838,0.0001034,53.2176,301.4615,95.8826,286.139,-0.0071944,-0.00716452,0.0,0 STARLINK-3575,1 51878U 22022AC  22103.58336806 -.00716452  00000-0 -71944-2 0  9998,2 51878  53.2176 301.4615 0001034  95.8826 286.1390 15.67017838  3706,6745.579000000002,91.894,368.141,366.746,0.0
51878.0,STARLINK-3575,PAYLOAD,2022-04-13 22:00:00,15.66507592,0.0001117,53.2175,299.8319,93.5327,9.544,-0.0073438,-0.00716317,0.0,0 STARLINK-3575,1 51878U 22022AC  22103.91667824 -.00716317  00000-0 -73438-2 0  9992,2 51878  53.2175 299.8319 0001117  93.5327   9.5440 15.66507592  7717,6747.043000000002,91.924,369.662,368.155,0.0
51878.0,STARLINK-3575,PAYLOAD,2022-04-14 14:00:01,15.65488437,0.000125,53.2177,296.5699,104.5257,159.0873,-0.0076558,-0.00716586,0.0,0 STARLINK-3575,1 51878U 22022AC  22104.58334491 -.00716586  00000-0 -76558-2 0  9991,2 51878  53.2177 296.5699 0001250 104.5257 159.0873 15.65488437  3708,6749.971,91.984,372.68,370.99300000000005,0.0
51878.0,STARLINK-3575,PAYLOAD,2022-04-14 22:00:00,15.64978415,0.0001115,53.2177,294.9438,104.1377,238.823,-0.0078266,-0.00717588,0.0,0 STARLINK-3575,1 51878U 22022AC  22104.91667824 -.00717588  00000-0 -78266-2 0  9998,2 51878  53.2177 294.9438 0001115 104.1377 238.8230 15.64978415  7874,6751.438,92.014,374.056,372.55,0.0
51878.0,STARLINK-3575,PAYLOAD,2022-04-15 04:12:14,15.65450516,6.25e-05,53.2158,293.6628,101.6852,258.4234,-0.0035693,-0.0034899,0.0,0 STARLINK-3575,1 51878U 22022AC  22105.17517176 -.00348990  00000-0 -35693-2 0  9995,2 51878  53.2158 293.6628 0000625 101.6852 258.4234 15.65450516  7910,6750.08,91.986,372.367,371.524,0.0
51878.0,STARLINK-3575,PAYLOAD,2022-04-15 13:24:17,15.6481251,8.809999999999999e-05,53.2147,291.7942,121.1885,238.9217,-0.0038586,-0.00366952,0.0,0 STARLINK-3575,1 51878U 22022AC  22105.55853071 -.00366952  00000-0 -38586-2 0  9996,2 51878  53.2147 291.7942 0000881 121.1885 238.9217 15.64812510  7989,6751.915,92.024,374.375,373.185,0.0
51878.0,STARLINK-3575,PAYLOAD,2022-04-15 14:00:01,15.6395711,0.0001184,53.2177,291.6895,81.0928,58.7282,-0.0081141,-0.007145,0.0,0 STARLINK-3575,1 51878U 22022AC  22105.58334491 -.00714500  00000-0 -81141-2 0  9990,2 51878  53.2177 291.6895 0001184  81.0928  58.7282 15.63957110  7971,6754.377,92.074,377.041,375.442,0.0
51878.0,STARLINK-3575,PAYLOAD,2022-04-15 22:00:00,15.63445532,0.0001242,53.2175,290.0669,79.0848,138.2458,-0.0082482,-0.0071194999999999,0.0,0 STARLINK-3575,1 51878U 22022AC  22105.91667824 -.00711950  00000-0 -82482-2 0  9991,2 51878  53.2175 290.0669 0001242  79.0848 138.2458 15.63445532  3687,6755.85,92.104,378.554,376.876,0.0
51878.0,STARLINK-3575,PAYLOAD,2022-04-16 14:00:01,15.62429384,0.0001039,53.2175,286.8201,89.4607,281.0515,-0.0086623,-0.00717765,0.0,0 STARLINK-3575,1 51878U 22022AC  22106.58334491 -.00717765  00000-0 -86623-2 0  9997,2 51878  53.2175 286.8201 0001039  89.4607 281.0515 15.62429384  8136,6758.779,92.164,381.346,379.942,0.0
